[{"OBJECT_NAME":"LINGQIAO VIDEO B","OBJECT_ID":"2015-057C","EPOCH":"2026-03-09T23:35:26.721888","MEAN_MOTION":14.77336016,"ECCENTRICITY":0.00156503,"INCLINATION":97.6585,"RA_OF_ASC_NODE":69.8903,"ARG_OF_PERICENTER":229.2428,"MEAN_ANOMALY":130.7425,"EPHEMERIS_TYPE":0,"CLASSIFICATION_TYPE":"U","NORAD_CAT_ID":40960,"ELEMENT_SET_NO":999,"REV_AT_EPOCH":56080,"BSTAR":0.00021138214,"MEAN_MOTION_DOT":1.456e-5,"MEAN_MOTION_DDOT":0},{"OBJECT_NAME":"CZ-6A DEB","OBJECT_ID":"2024-140ZN","EPOCH":"2026-03-09T15:06:28.633248","MEAN_MOTION":14.59251584,"ECCENTRICITY":0.0099648,"INCLINATION":89.1073,"RA_OF_ASC_NODE":289.9838,"ARG_OF_PERICENTER":239.5037,"MEAN_ANOMALY":119.6308,"EPHEMERIS_TYPE":0,"CLASSIFICATION_TYPE":"U","NORAD_CAT_ID":61456,"ELEMENT_SET_NO":999,"REV_AT_EPOCH":7852,"BSTAR":0.00084843,"MEAN_MOTION_DOT":4.307e-5,"MEAN_MOTION_DDOT":0}]
